STARLINK-36846          
1 67894U 26035R   26061.83335647 -.00860093  25699-3 -14189-2 0  9991
2 67894  97.2769 353.6355 0001117  99.3451  26.4032 16.03140183  2654
STARLINK-36866          
1 67895U 26035S   26061.83335647 -.00860254  25748-3 -14085-2 0  9991
2 67895  97.2767 353.6368 0001097  79.6013  49.5080 16.03268652  2650
STARLINK-36877          
1 67896U 26035T   26061.83335647 -.00851419  25178-3 -14162-2 0  9998
2 67896  97.2768 353.6337 0001075  76.7637  45.2741 16.02998982  2656
STARLINK-36870          
1 67897U 26035U   26061.83335647 -.00867616  26206-3 -14076-2 0  9992
2 67897  97.2762 353.6382 0001033  97.0541  35.9167 16.03424316  2659
STARLINK-36810          
1 67898U 26035V   26061.83335647 -.00867565  26241-3 -13976-2 0  9993
2 67898  97.2762 353.6395 0000973  94.6745  41.3460 16.03544540  2654
STARLINK-36878          
1 67899U 26035W   26061.83335647 -.00969852  32362-3 -15399-2 0  9998
2 67899  97.2759 353.6421 0001107  99.4323  42.6329 16.03802809  2659
STARLINK-36361          
1 67900U 26035X   26061.83335647 -.00987650  33528-3 -15551-2 0  9992
2 67900  97.2759 353.6435 0001055 101.6238  43.7549 16.03946897  2652
STARLINK-36336          
1 67901U 26035Y   26061.83335647 -.01036765  36834-3 -15990-2 0  9996
2 67901  97.2760 353.6481 0001001  99.6584  55.7901 16.04300643  2702
STARLINK-36876          
1 67902U 26035Z   26061.83335647 -.01033366  36502-3 -16175-2 0  9999
2 67902  97.2763 353.6455 0001086  90.3292  57.9416 16.04052090  2653
STARLINK-36257          
1 67903U 26035AA  26061.83335647 -.01043828  37237-3 -16235-2 0  9997
2 67903  97.2759 353.6459 0001037  86.5780  64.7354 16.04160948  2703
